STARLINK-36896          
1 68092U 26042Z   26075.75002314 -.01534971  00000+0 -80410-2 0  9997
2 68092  53.1593 159.1980 0000743  69.4998 234.2127 15.82892113  3188
STARLINK-36251          
1 68093U 26042AA  26075.75002314 -.01602199  00000+0 -83611-2 0  9992
2 68093  53.1590 159.1811 0000725  58.6697 253.1999 15.83100768  3170
STARLINK-36787          
1 68094U 26042AB  26075.75002314 -.01554089  00000+0 -81365-2 0  9991
2 68094  53.1591 159.1622 0000946  69.2015 251.5395 15.82938047  3179
STARLINK-36790          
1 68095U 26042AC  26075.75002314 -.01551677  00000+0 -80960-2 0  9992
2 68095  53.1592 159.1892 0000960  79.0232 228.7338 15.83005364  3177
STARLINK-36328          
1 68096U 26042AD  26075.75002314 -.01482952  00000+0 -77121-2 0  9997
2 68096  53.1590 159.1535 0001020  66.8177 258.1291 15.82943998  3178
STARLINK-36853          
1 68097U 26042AE  26075.75002314 -.01587414  00000+0 -83609-2 0  9995
2 68097  53.1592 159.1709 0000654  71.3466 245.2697 15.82879296  3185
GLOBAL-34               
1 68098U 26043A   26075.19162733  .00010093  00000+0  33176-3 0  9993
2 68098  42.0189  37.9641 0006305 328.5905  31.4555 15.31549994  1568
STARLINK-37022          
1 68101U 26044A   26075.75002314 -.02018479  11263-2 -57443-2 0  9997
2 68101  97.2823  36.1663 0001543  84.6056  26.9388 15.93451203  2535
STARLINK-37046          
1 68102U 26044B   26075.75002314 -.02000071  11086-2 -56493-2 0  9994
2 68102  97.2823  36.1675 0001523  82.6768  31.1766 15.93592935  2531
STARLINK-37018          
1 68103U 26044C   26075.75002314 -.02021500  11327-2 -56715-2 0  9990
2 68103  97.2818  36.1688 0001594  78.7756  38.2362 15.93723717  2489
STARLINK-37041          
1 68104U 26044D   26075.75002314 -.02040451  11562-2 -56452-2 0  9996
2 68104  97.2820  36.1715 0001490  78.3852  44.3945 15.93992803  2481
STARLINK-37021          
1 68105U 26044E   26075.75002314 -.02032089  11489-2 -55819-2 0  9999
2 68105  97.2815  36.1722 0001578  79.4915  45.8317 15.94127935  2489
STARLINK-37024          
1 68106U 26044F   26075.75002314 -.02038120  11571-2 -55593-2 0  9993
2 68106  97.2816  36.1733 0001597  84.7166  43.3887 15.94262055  2489
STARLINK-37005          
1 68107U 26044G   26075.75002314 -.02029495  11429-2 -56542-2 0  9996
2 68107  97.2818  36.1697 0001570  77.7182  42.1585 15.93858301  2488
STARLINK-37017          
1 68108U 26044H   26075.75002314 -.02051445  11731-2 -55584-2 0  9998
2 68108  97.2816  36.1750 0001487  80.9077  50.2729 15.94390267  2486
STARLINK-36833          
1 68109U 26044J   26075.75002314 -.02060768  11865-2 -55081-2 0  9997
2 68109  97.2807  36.1770 0001621  87.3918  49.5125 15.94648657  2530
STARLINK-36830          
1 68110U 26044K   26075.75002314 -.02063757  11881-2 -55554-2 0  9993
2 68110  97.2811  36.1759 0001571  83.8794  50.4185 15.94514948  2533
STARLINK-36791          
1 68111U 26044L   26075.75002314 -.02062405  11899-2 -54769-2 0  9999
2 68111  97.2810  36.1786 0001623  86.5095  53.3765 15.94771155  2480
STARLINK-36893          
1 68112U 26044M   26075.75002314 -.02060921  11900-2 -54353-2 0  9993
2 68112  97.2807  36.1795 0001593  84.2067  58.3902 15.94901264  2537
STARLINK-36937          
1 68113U 26044N   26075.75002314 -.02065063  11979-2 -53726-2 0  9995
2 68113  97.2807  36.1821 0001664  90.8279  57.3970 15.95157434  2486
STARLINK-36229          
1 68114U 26044P   26075.75002314 -.02068053  11995-2 -54174-2 0  9994
2 68114  97.2802  36.1801 0001604  88.6361  56.8938 15.95029185  2536
STARLINK-36392          
1 68115U 26044Q   26075.75002314 -.02076365  12120-2 -53676-2 0  9997
2 68115  97.2803  36.1831 0001602  83.9963  67.4509 15.95278691  2535
STARLINK-36805          
1 68116U 26044R   26075.75002314 -.02080860  12184-2 -53494-2 0  9991
2 68116  97.2802  36.1845 0001652  86.5720  68.4400 15.95383398  2537
STARLINK-36844          
1 68117U 26044S   26075.75002314 -.02080522  12197-2 -53120-2 0  9997
2 68117  97.2798  36.1854 0001621  85.8470  71.9199 15.95511483  2488
STARLINK-36789          
1 68118U 26044T   26075.75002314 -.02111612  12553-2 -53796-2 0  9998
2 68118  97.2799  36.1879 0001705  84.2591  78.8536 15.95555207  2480
STARLINK-36850          
1 68119U 26044U   26075.75002314 -.02111940  12574-2 -53441-2 0  9993
2 68119  97.2798  36.1891 0001658  87.1400  78.8123 15.95681926  2482
STARLINK-36868          
1 68120U 26044V   26075.75002314 -.02124092  12729-2 -53418-2 0  9993
2 68120  97.2794  36.1909 0001615  86.7984  82.6274 15.95798013  2481
STARLINK-36855          
1 68121U 26044W   26075.75002314 -.02134223  12863-2 -53323-2 0  9995
2 68121  97.2793  36.1925 0001714  88.5011  84.1276 15.95920602  2480
STARLINK-36366          
1 68122U 26044X   26075.75002314 -.02133263  12871-2 -52926-2 0  9996
2 68122  97.2791  36.1934 0001685  87.0680  88.2570 15.96050966  2538
STARLINK-36922          
1 68123U 26044Y   26075.75002314 -.02132598  12900-2 -52205-2 0  9990
2 68123  97.2792  36.1959 0001686  90.1269  90.9818 15.96299581  2539
STARLINK-36938          
1 68124U 26044Z   26075.75002314 -.02128841  12875-2 -51753-2 0  9995
2 68124  97.2791  36.1971 0001679  89.6522  94.1008 15.96427887  2539
STARLINK-36839          
1 68125U 26044AA  26075.75002314 -.02132633  12881-2 -52581-2 0  9997
2 68125  97.2794  36.1950 0001634  89.0715  89.4334 15.96167086  2484
ECHOSTAR 25             
1 68126U 26045A   26074.15172541  .00001699  00000+0  49012-3 0  9998
2 68126  26.8649  68.3559 6668368 178.8166 184.5786  3.07256928   186
ICOR SV                 
1 68127U 26046A   26072.90953491  .00482503  92133-4  10434-2 0  9997
2 68127 123.0797 224.1306 0140888 188.2572 171.6170 15.82606913   290
FIREFLY ALPHA R/B       
1 68128U 26046B   26075.70219513  .00030497  00000+0  43010-3 0  9994
2 68128 123.0918 236.0800 0013850 350.4533   9.6262 15.56293241   733
GUOWANG GROUP 20 OBJECT*
1 68129U 26047A   26075.92270713 -.00000145  00000+0  44197-5 0  9996
2 68129  50.0049  40.9738 0008918 275.4680  84.5207 14.05638272   582
GUOWANG GROUP 20 OBJECT*
1 68130U 26047B   26075.99345123 -.00000146  00000+0  39857-5 0  9991
2 68130  50.0050  40.6814 0007553 270.8584  89.1456 14.05760952   582
GUOWANG GROUP 20 OBJECT*
1 68131U 26047C   26075.70871257 -.00000142  00000+0  64286-5 0  9993
2 68131  50.0033  41.8404 0008328 278.7560  81.2402 14.06101269   556
GUOWANG GROUP 20 OBJECT*
1 68132U 26047D   26075.99309505 -.00000145  00000+0  44229-5 0  9995
2 68132  50.0073  40.6834 0008436 282.3819  77.6142 14.05881350   581
GUOWANG GROUP 20 OBJECT*
1 68133U 26047E   26074.57132905 -.00000144  00000+0  49082-5 0  9998
2 68133  50.0036  46.4889 0007036 272.1398  87.8702 14.06230486   392
GUOWANG GROUP 20 OBJECT*
1 68134U 26047F   26075.35268262 -.00000141  00000+0  65960-5 0  9992
2 68134  50.0099  43.2966 0006721 278.7487  81.2658 14.06374476   491
GUOWANG GROUP 20 OBJECT*
1 68135U 26047G   26074.92639786 -.00000143  00000+0  54739-5 0  9992
2 68135  50.0119  45.0444 0007630 283.0341  76.9712 14.06345852   447
GUOWANG GROUP 20 OBJECT*
1 68136U 26047H   26075.70777182 -.00000141  00000+0  70604-5 0  9990
2 68136  50.0091  41.8417 0007787 290.7831  69.2240 14.06444187   546
GUOWANG GROUP 20 OBJECT*
1 68137U 26047J   26074.92590331 -.00000144  00000+0  49816-5 0  9997
2 68137  50.0081  45.0389 0006248 285.2816  74.7399 14.06573417   447
CZ-8A R/B               
1 68138U 26047K   26075.90434169 -.00000236  00000+0 -43361-4 0  9994
2 68138  49.9544  40.8361 0044741 163.2705 196.9689 14.12227789   572
SHIYAN-30 03            
1 68139U 26048A   26075.73289940  .00002523  00000+0  24181-3 0  9999
2 68139  34.9995 101.8291 0004685 332.5792  27.4665 14.92818854   554
SHIYAN-30 04            
1 68140U 26048B   26075.73361256  .00002182  00000+0  21116-3 0  9998
2 68140  34.9910 101.8385 0004363 326.1868  33.8558 14.92503291   551
CZ-2D R/B               
1 68141U 26048C   26075.79290420  .00001494  00000+0  13479-3 0  9997
2 68141  35.1292 101.5720 0015313  26.0233 334.1243 14.95522426   560
YAOGAN-50 02            
1 68196U 26051A   26075.67053815  .00000272  00000+0  30372-4 0  9998
2 68196 141.9996 239.7951 0148508 128.5083 232.9054 14.16075402   162
CZ-6A R/B               
1 68197U 26051B   26075.84642201  .00000869  00000+0  99382-4 0  9999
2 68197 142.0310 241.1321 0185602 101.1577 261.0087 14.56351721   203
2026-052A               
1 68198U 26052A   26076.07934001  .00000983  00000+0  64669-4 0  9996
2 68198  97.5387 152.3170 0012413 262.4488  97.5331 15.09804425   148
2026-052B               
1 68199U 26052B   26076.07923792  .00000980  00000+0  64201-4 0  9991
2 68199  97.5386 152.3161 0011511 264.1577  95.8340 15.09979416   148
2026-052C               
1 68200U 26052C   26075.88037389  .00001422  00000+0  91084-4 0  9991
2 68200  97.5392 152.1214 0011279 268.0754  91.9183 15.10116624   100
2026-052D               
1 68201U 26052D   26075.88031615  .00001426  00000+0  90970-4 0  9995
2 68201  97.5383 152.1207 0010436 262.0406  97.9639 15.10251457   112
2026-052E               
1 68202U 26052E   26075.88031253  .00001423  00000+0  90813-4 0  9997
2 68202  97.5402 152.1203 0010283 267.8085  92.1966 15.10256396   114
2026-052F               
1 68203U 26052F   26076.07893826  .00000977  00000+0  63164-4 0  9994
2 68203  97.5387 152.3221 0009551 258.7652 101.2505 15.10507241   146
2026-052G               
1 68204U 26052G   26075.88018175  .00001426  00000+0  90291-4 0  9990
2 68204  97.5391 152.1203 0009124 263.4988  96.5203 15.10557992   117
2026-052H               
1 68205U 26052H   26075.89949330  .00014979  16466-5  22627-3 0  9991
2 68205  97.3440 152.4054 0549950  10.6771 350.5566 14.66502139   114
